IRIDIUM 106             
1 41917U 17003A   25003.76173332  .00000608  00000+0  21014-3 0  9999
2 41917  86.3980 309.7643 0002037  93.9227 266.2201 14.34218683417320
IRIDIUM 103             
1 41918U 17003B   25003.53973064  .00000896  00000+0  31280-3 0  9990
2 41918  86.3977 309.7576 0002037  72.3247 287.8171 14.34208987417315
IRIDIUM 109             
1 41919U 17003C   25003.68561847  .00000852  00000+0  29706-3 0  9991
2 41919  86.3979 309.7478 0002314  76.7328 283.4126 14.34208773417309
IRIDIUM 102             
1 41920U 17003D   25003.58414086  .00000442  00000+0  15069-3 0  9996
2 41920  86.3980 309.7249 0002310  84.9747 275.1712 14.34217915417375
IRIDIUM 105             
1 41921U 17003E   25003.69440925  .00000789  00000+0  27458-3 0  9999
2 41921  86.3977 278.0998 0001937  90.3944 269.7474 14.34206261419249
IRIDIUM 104             
1 41922U 17003F   25003.80613233  .00000680  00000+0  23585-3 0  9994
2 41922  86.3981 309.6666 0002219  70.4631 289.6804 14.34218643417393
IRIDIUM 114             
1 41923U 17003G   25003.81247483  .00000981  00000+0  34306-3 0  9993
2 41923  86.3980 309.6493 0001922  82.0616 278.0798 14.34221467417373
IRIDIUM 108             
1 41924U 17003H   25004.25937271  .00000142  00000+0  43747-4 0  9993
2 41924  86.3961 277.7761 0001995  89.9539 270.1885 14.34216172419319
